; RoboSketch
; paper 210x297mm, margin 10mm, 13 strokes
G21 ; millimetres
G90 ; absolute positioning
G92 X0 Y0 ; pen is at X0 Y0 (paper bottom-left)
G0 Z5.00
G0 X55.80 Y98.00
G1 Z0.00 F500
G1 X56.39 Y95.03 F1500
G1 X58.08 Y92.51
G1 X60.60 Y90.82
G1 X63.57 Y90.23
G1 X66.54 Y90.82
G1 X69.06 Y92.51
G1 X70.75 Y95.03
G1 X71.34 Y98.00
G1 X70.75 Y100.97
G1 X69.06 Y103.49
G1 X66.54 Y105.18
G1 X63.57 Y105.77
G1 X60.60 Y105.18
G1 X58.08 Y103.49
G1 X56.39 Y100.97
G1 X55.80 Y98.00
G0 Z5.00
G0 X97.23 Y116.13
G1 Z0.00 F500
G1 X95.69 Y110.95 F1500
G1 X93.67 Y105.77
G1 X91.16 Y100.59
G1 X88.17 Y95.41
G1 X84.69 Y90.23
G1 X80.72 Y85.05
G1 X76.27 Y79.88
G1 X71.34 Y74.70
G1 X67.25 Y72.96
G1 X63.41 Y71.62
G1 X59.81 Y70.69
G1 X56.45 Y70.17
G1 X53.33 Y70.04
G1 X50.46 Y70.33
G1 X47.83 Y71.02
G1 X45.44 Y72.11
G1 X43.30 Y73.60
G1 X41.40 Y75.51
G1 X39.74 Y77.81
G1 X38.32 Y80.52
G1 X37.15 Y83.64
G1 X36.22 Y87.16
G1 X35.53 Y91.08
G1 X35.09 Y95.41
G1 X40.02 Y103.30
G1 X45.77 Y110.14
G1 X52.32 Y115.93
G1 X59.68 Y120.66
G1 X67.86 Y124.34
G1 X76.84 Y126.97
G1 X86.63 Y128.55
G1 X97.23 Y129.08
G0 Z5.00
G0 X97.23 Y136.84
G1 Z0.00 F500
G1 X97.38 Y127.75 F1500
G1 X97.82 Y119.01
G1 X98.54 Y110.95
G1 X99.51 Y103.89
G1 X100.68 Y98.09
G1 X102.03 Y93.78
G1 X102.74 Y92.24
G1 X103.48 Y91.13
G1 X104.24 Y90.46
G1 X105.00 Y90.23
G1 X105.76 Y90.46
G1 X106.52 Y91.13
G1 X107.26 Y92.24
G1 X107.97 Y93.78
G1 X109.32 Y98.09
G1 X110.49 Y103.89
G1 X111.46 Y110.95
G1 X112.18 Y119.01
G1 X112.62 Y127.75
G1 X112.77 Y136.84
G1 X112.62 Y145.94
G1 X112.18 Y154.68
G1 X111.46 Y162.74
G1 X110.49 Y169.80
G1 X109.32 Y175.60
G1 X107.97 Y179.91
G1 X107.26 Y181.45
G1 X106.52 Y182.56
G1 X105.76 Y183.23
G1 X105.00 Y183.45
G1 X104.24 Y183.23
G1 X103.48 Y182.56
G1 X102.74 Y181.45
G1 X102.03 Y179.91
G1 X100.68 Y175.60
G1 X99.51 Y169.80
G1 X98.54 Y162.74
G1 X97.82 Y154.68
G1 X97.38 Y145.94
G1 X97.23 Y136.84
G0 Z5.00
G0 X97.23 Y144.61
G1 Z0.00 F500
G1 X92.58 Y142.87 F1500
G1 X87.68 Y141.54
G1 X82.54 Y140.61
G1 X77.16 Y140.08
G1 X71.54 Y139.96
G1 X65.67 Y140.24
G1 X59.56 Y140.93
G1 X53.21 Y142.02
G1 X46.38 Y144.69
G1 X40.14 Y147.52
G1 X34.49 Y150.52
G1 X29.42 Y153.67
G1 X24.94 Y156.99
G1 X21.05 Y160.47
G1 X17.74 Y164.11
G1 X15.02 Y167.92
G1 X12.88 Y171.88
G1 X11.34 Y176.01
G1 X10.37 Y180.30
G1 X10.00 Y184.75
G1 X10.21 Y189.36
G1 X11.01 Y194.13
G1 X12.40 Y199.07
G1 X14.37 Y204.17
G1 X19.25 Y208.24
G1 X24.16 Y211.37
G1 X29.12 Y213.58
G1 X34.11 Y214.85
G1 X39.15 Y215.19
G1 X44.23 Y214.61
G1 X49.35 Y213.09
G1 X54.51 Y210.64
G1 X59.71 Y207.26
G1 X64.94 Y202.96
G1 X70.22 Y197.72
G1 X75.55 Y191.55
G1 X80.91 Y184.44
G1 X86.31 Y176.41
G1 X91.75 Y167.45
G1 X97.23 Y157.56
G0 Z5.00
G0 X112.77 Y157.56
G1 Z0.00 F500
G1 X118.25 Y167.45 F1500
G1 X123.69 Y176.41
G1 X129.09 Y184.44
G1 X134.45 Y191.55
G1 X139.78 Y197.72
G1 X145.06 Y202.96
G1 X150.29 Y207.26
G1 X155.49 Y210.64
G1 X160.65 Y213.09
G1 X165.77 Y214.61
G1 X170.85 Y215.19
G1 X175.89 Y214.85
G1 X180.88 Y213.58
G1 X185.84 Y211.37
G1 X190.75 Y208.24
G1 X195.63 Y204.17
G1 X197.60 Y199.07
G1 X198.99 Y194.13
G1 X199.79 Y189.36
G1 X200.00 Y184.75
G1 X199.63 Y180.30
G1 X198.66 Y176.01
G1 X197.12 Y171.88
G1 X194.98 Y167.92
G1 X192.26 Y164.11
G1 X188.95 Y160.47
G1 X185.06 Y156.99
G1 X180.58 Y153.67
G1 X175.51 Y150.52
G1 X169.86 Y147.52
G1 X163.62 Y144.69
G1 X156.79 Y142.02
G1 X150.44 Y140.93
G1 X144.33 Y140.24
G1 X138.46 Y139.96
G1 X132.84 Y140.08
G1 X127.46 Y140.61
G1 X122.32 Y141.54
G1 X117.42 Y142.87
G1 X112.77 Y144.61
G0 Z5.00
G0 X112.77 Y129.08
G1 Z0.00 F500
G1 X123.37 Y128.55 F1500
G1 X133.16 Y126.97
G1 X142.14 Y124.34
G1 X150.32 Y120.66
G1 X157.68 Y115.93
G1 X164.23 Y110.14
G1 X169.98 Y103.30
G1 X174.91 Y95.41
G1 X174.47 Y91.08
G1 X173.78 Y87.16
G1 X172.85 Y83.64
G1 X171.68 Y80.52
G1 X170.26 Y77.81
G1 X168.60 Y75.51
G1 X166.70 Y73.60
G1 X164.56 Y72.11
G1 X162.17 Y71.02
G1 X159.54 Y70.33
G1 X156.67 Y70.04
G1 X153.55 Y70.17
G1 X150.19 Y70.69
G1 X146.59 Y71.62
G1 X142.75 Y72.96
G1 X138.66 Y74.70
G1 X133.73 Y79.88
G1 X129.28 Y85.05
G1 X125.31 Y90.23
G1 X121.83 Y95.41
G1 X118.84 Y100.59
G1 X116.33 Y105.77
G1 X114.31 Y110.95
G1 X112.77 Y116.13
G0 Z5.00
G0 X138.66 Y98.00
G1 Z0.00 F500
G1 X139.25 Y95.03 F1500
G1 X140.94 Y92.51
G1 X143.46 Y90.82
G1 X146.43 Y90.23
G1 X149.40 Y90.82
G1 X151.92 Y92.51
G1 X153.61 Y95.03
G1 X154.20 Y98.00
G1 X153.61 Y100.97
G1 X151.92 Y103.49
G1 X149.40 Y105.18
G1 X146.43 Y105.77
G1 X143.46 Y105.18
G1 X140.94 Y103.49
G1 X139.25 Y100.97
G1 X138.66 Y98.00
G0 Z5.00
G0 X146.43 Y183.45
G1 Z0.00 F500
G1 X146.68 Y180.93 F1500
G1 X147.42 Y178.50
G1 X148.61 Y176.26
G1 X150.22 Y174.30
G1 X152.19 Y172.69
G1 X154.42 Y171.49
G1 X156.85 Y170.75
G1 X159.38 Y170.51
G1 X161.90 Y170.75
G1 X164.33 Y171.49
G1 X166.57 Y172.69
G1 X168.53 Y174.30
G1 X170.14 Y176.26
G1 X171.34 Y178.50
G1 X172.08 Y180.93
G1 X172.33 Y183.45
G1 X172.08 Y185.98
G1 X171.34 Y188.41
G1 X170.14 Y190.65
G1 X168.53 Y192.61
G1 X166.57 Y194.22
G1 X164.33 Y195.42
G1 X161.90 Y196.15
G1 X159.38 Y196.40
G1 X156.85 Y196.15
G1 X154.42 Y195.42
G1 X152.19 Y194.22
G1 X150.22 Y192.61
G1 X148.61 Y190.65
G1 X147.42 Y188.41
G1 X146.68 Y185.98
G1 X146.43 Y183.45
G0 Z5.00
G0 X133.48 Y219.71
G1 Z0.00 F500
G1 X129.68 Y216.83 F1500
G1 X126.04 Y213.39
G1 X122.56 Y209.39
G1 X119.24 Y204.82
G1 X116.09 Y199.68
G1 X113.09 Y193.97
G1 X110.26 Y187.70
G1 X107.59 Y180.86
G0 Z5.00
G0 X102.41 Y180.86
G1 Z0.00 F500
G1 X99.74 Y187.70 F1500
G1 X96.91 Y193.97
G1 X93.91 Y199.68
G1 X90.76 Y204.82
G1 X87.44 Y209.39
G1 X83.96 Y213.39
G1 X80.32 Y216.83
G1 X76.52 Y219.71
G0 Z5.00
G0 X69.27 Y222.29
G1 Z0.00 F500
G1 X69.62 Y220.51 F1500
G1 X70.63 Y219.00
G1 X72.14 Y217.99
G1 X73.93 Y217.63
G1 X75.71 Y217.99
G1 X77.22 Y219.00
G1 X78.23 Y220.51
G1 X78.59 Y222.29
G1 X78.23 Y224.08
G1 X77.22 Y225.59
G1 X75.71 Y226.60
G1 X73.93 Y226.96
G1 X72.14 Y226.60
G1 X70.63 Y225.59
G1 X69.62 Y224.08
G1 X69.27 Y222.29
G0 Z5.00
G0 X37.67 Y183.45
G1 Z0.00 F500
G1 X37.92 Y180.93 F1500
G1 X38.66 Y178.50
G1 X39.86 Y176.26
G1 X41.47 Y174.30
G1 X43.43 Y172.69
G1 X45.67 Y171.49
G1 X48.10 Y170.75
G1 X50.62 Y170.51
G1 X53.15 Y170.75
G1 X55.58 Y171.49
G1 X57.81 Y172.69
G1 X59.78 Y174.30
G1 X61.39 Y176.26
G1 X62.58 Y178.50
G1 X63.32 Y180.93
G1 X63.57 Y183.45
G1 X63.32 Y185.98
G1 X62.58 Y188.41
G1 X61.39 Y190.65
G1 X59.78 Y192.61
G1 X57.81 Y194.22
G1 X55.58 Y195.42
G1 X53.15 Y196.15
G1 X50.62 Y196.40
G1 X48.10 Y196.15
G1 X45.67 Y195.42
G1 X43.43 Y194.22
G1 X41.47 Y192.61
G1 X39.86 Y190.65
G1 X38.66 Y188.41
G1 X37.92 Y185.98
G1 X37.67 Y183.45
G0 Z5.00
G0 X131.41 Y222.29
G1 Z0.00 F500
G1 X131.77 Y220.51 F1500
G1 X132.78 Y219.00
G1 X134.29 Y217.99
G1 X136.07 Y217.63
G1 X137.86 Y217.99
G1 X139.37 Y219.00
G1 X140.38 Y220.51
G1 X140.73 Y222.29
G1 X140.38 Y224.08
G1 X139.37 Y225.59
G1 X137.86 Y226.60
G1 X136.07 Y226.96
G1 X134.29 Y226.60
G1 X132.78 Y225.59
G1 X131.77 Y224.08
G1 X131.41 Y222.29
G0 Z5.00
G0 X0.00 Y0.00
M2 ; end of program
