; RoboSketch
; paper 210x297mm, margin 10mm, 11 strokes
G21 ; millimetres
G90 ; absolute positioning
G92 X0 Y0 ; pen is at X0 Y0 (paper bottom-left)
G0 Z5.00
G0 X10.00 Y105.22
G1 Z0.00 F500
G1 X200.00 Y105.22 F1500
G0 Z5.00
G0 X189.44 Y149.56
G1 Z0.00 F500
G1 X181.00 Y149.56 F1500
G0 Z5.00
G0 X145.11 Y124.22
G1 Z0.00 F500
G1 X145.59 Y121.80 F1500
G1 X146.97 Y119.74
G1 X149.02 Y118.37
G1 X151.44 Y117.89
G1 X153.87 Y118.37
G1 X155.92 Y119.74
G1 X157.30 Y121.80
G1 X157.78 Y124.22
G1 X157.30 Y126.65
G1 X155.92 Y128.70
G1 X153.87 Y130.07
G1 X151.44 Y130.56
G1 X149.02 Y130.07
G1 X146.97 Y128.70
G1 X145.59 Y126.65
G1 X145.11 Y124.22
G0 Z5.00
G0 X134.56 Y124.22
G1 Z0.00 F500
G1 X134.88 Y120.93 F1500
G1 X135.84 Y117.76
G1 X137.40 Y114.84
G1 X139.50 Y112.28
G1 X142.06 Y110.18
G1 X144.98 Y108.62
G1 X148.15 Y107.66
G1 X151.44 Y107.33
G1 X154.74 Y107.66
G1 X157.91 Y108.62
G1 X160.83 Y110.18
G1 X163.39 Y112.28
G1 X165.49 Y114.84
G1 X167.05 Y117.76
G1 X168.01 Y120.93
G1 X168.33 Y124.22
G1 X168.01 Y127.52
G1 X167.05 Y130.69
G1 X165.49 Y133.61
G1 X163.39 Y136.16
G1 X160.83 Y138.26
G1 X157.91 Y139.83
G1 X154.74 Y140.79
G1 X151.44 Y141.11
G1 X148.15 Y140.79
G1 X144.98 Y139.83
G1 X142.06 Y138.26
G1 X139.50 Y136.16
G1 X137.40 Y133.61
G1 X135.84 Y130.69
G1 X134.88 Y127.52
G1 X134.56 Y124.22
G0 Z5.00
G0 X130.33 Y155.89
G1 Z0.00 F500
G1 X121.89 Y155.89 F1500
G0 Z5.00
G0 X126.11 Y164.33
G1 Z0.00 F500
G1 X126.11 Y183.33 F1500
G1 X138.78 Y183.33
G1 X151.44 Y164.33
G1 X126.11 Y164.33
G0 Z5.00
G0 X90.22 Y164.33
G1 Z0.00 F500
G1 X100.78 Y183.33 F1500
G1 X117.67 Y183.33
G1 X117.67 Y164.33
G1 X90.22 Y164.33
G0 Z5.00
G0 X52.22 Y124.22
G1 Z0.00 F500
G1 X52.70 Y121.80 F1500
G1 X54.08 Y119.74
G1 X56.13 Y118.37
G1 X58.56 Y117.89
G1 X60.98 Y118.37
G1 X63.03 Y119.74
G1 X64.41 Y121.80
G1 X64.89 Y124.22
G1 X64.41 Y126.65
G1 X63.03 Y128.70
G1 X60.98 Y130.07
G1 X58.56 Y130.56
G1 X56.13 Y130.07
G1 X54.08 Y128.70
G1 X52.70 Y126.65
G1 X52.22 Y124.22
G0 Z5.00
G0 X41.67 Y124.22
G1 Z0.00 F500
G1 X41.99 Y120.93 F1500
G1 X42.95 Y117.76
G1 X44.51 Y114.84
G1 X46.61 Y112.28
G1 X49.17 Y110.18
G1 X52.09 Y108.62
G1 X55.26 Y107.66
G1 X58.56 Y107.33
G1 X61.85 Y107.66
G1 X65.02 Y108.62
G1 X67.94 Y110.18
G1 X70.50 Y112.28
G1 X72.60 Y114.84
G1 X74.16 Y117.76
G1 X75.12 Y120.93
G1 X75.44 Y124.22
G1 X75.12 Y127.52
G1 X74.16 Y130.69
G1 X72.60 Y133.61
G1 X70.50 Y136.16
G1 X67.94 Y138.26
G1 X65.02 Y139.83
G1 X61.85 Y140.79
G1 X58.56 Y141.11
G1 X55.26 Y140.79
G1 X52.09 Y139.83
G1 X49.17 Y138.26
G1 X46.61 Y136.16
G1 X44.51 Y133.61
G1 X42.95 Y130.69
G1 X41.99 Y127.52
G1 X41.67 Y124.22
G0 Z5.00
G0 X29.00 Y141.11
G1 Z0.00 F500
G1 X20.56 Y141.11 F1500
G0 Z5.00
G0 X20.56 Y126.33
G1 Z0.00 F500
G1 X20.56 Y147.44 F1500
G1 X21.81 Y149.95
G1 X23.46 Y152.19
G1 X25.50 Y154.17
G1 X27.94 Y155.89
G1 X30.78 Y157.34
G1 X34.01 Y158.53
G1 X37.64 Y159.45
G1 X41.67 Y160.11
G1 X67.00 Y162.22
G1 X86.00 Y187.56
G1 X87.12 Y188.55
G1 X88.38 Y189.40
G1 X89.76 Y190.13
G1 X91.28 Y190.72
G1 X92.93 Y191.18
G1 X94.71 Y191.51
G1 X96.62 Y191.71
G1 X98.67 Y191.78
G1 X134.56 Y191.78
G1 X136.60 Y191.68
G1 X138.51 Y191.38
G1 X140.30 Y190.89
G1 X141.94 Y190.19
G1 X143.46 Y189.30
G1 X144.85 Y188.22
G1 X146.10 Y186.93
G1 X147.22 Y185.44
G1 X164.11 Y162.22
G1 X181.00 Y158.00
G1 X183.47 Y156.81
G1 X185.62 Y155.36
G1 X187.43 Y153.65
G1 X188.92 Y151.67
G1 X190.07 Y149.42
G1 X190.90 Y146.92
G1 X191.39 Y144.15
G1 X191.56 Y141.11
G1 X191.56 Y126.33
G1 X172.56 Y126.33
G1 X172.15 Y130.45
G1 X170.95 Y134.41
G1 X169.00 Y138.06
G1 X166.37 Y141.26
G1 X163.17 Y143.89
G1 X159.52 Y145.84
G1 X155.56 Y147.04
G1 X151.44 Y147.44
G1 X147.33 Y147.04
G1 X143.37 Y145.84
G1 X139.72 Y143.89
G1 X136.52 Y141.26
G1 X133.89 Y138.06
G1 X131.94 Y134.41
G1 X130.74 Y130.45
G1 X130.33 Y126.33
G1 X79.67 Y126.33
G1 X79.26 Y130.45
G1 X78.06 Y134.41
G1 X76.11 Y138.06
G1 X73.48 Y141.26
G1 X70.28 Y143.89
G1 X66.63 Y145.84
G1 X62.67 Y147.04
G1 X58.56 Y147.44
G1 X54.44 Y147.04
G1 X50.48 Y145.84
G1 X46.83 Y143.89
G1 X43.63 Y141.26
G1 X41.00 Y138.06
G1 X39.05 Y134.41
G1 X37.85 Y130.45
G1 X37.44 Y126.33
G1 X20.56 Y126.33
G0 Z5.00
G0 X0.00 Y0.00
M2 ; end of program
