; RoboSketch
; paper 210x297mm, margin 10mm, 14 strokes
G21 ; millimetres
G90 ; absolute positioning
G92 X0 Y0 ; pen is at X0 Y0 (paper bottom-left)
G0 Z5.00
G0 X10.00 Y101.00
G1 Z0.00 F500
G1 X62.50 Y108.50 F1500
G0 Z5.00
G0 X62.50 Y118.50
G1 Z0.00 F500
G1 X10.00 Y128.50 F1500
G0 Z5.00
G0 X40.00 Y151.00
G1 Z0.00 F500
G1 X32.50 Y231.00 F1500
G1 X82.50 Y193.50
G1 X88.13 Y195.14
G1 X93.75 Y196.31
G1 X99.38 Y197.02
G1 X105.00 Y197.25
G1 X110.63 Y197.02
G1 X116.25 Y196.31
G1 X121.88 Y195.14
G1 X127.50 Y193.50
G1 X177.50 Y231.00
G1 X170.00 Y151.00
G1 X171.50 Y141.88
G1 X172.27 Y133.27
G1 X172.29 Y125.16
G1 X171.56 Y117.56
G1 X170.10 Y110.47
G1 X167.89 Y103.89
G1 X164.94 Y97.82
G1 X161.25 Y92.25
G1 X156.82 Y87.19
G1 X151.64 Y82.64
G1 X145.72 Y78.60
G1 X139.06 Y75.06
G1 X131.66 Y72.04
G1 X123.52 Y69.52
G1 X114.63 Y67.50
G1 X105.00 Y66.00
G1 X95.37 Y67.50
G1 X86.48 Y69.52
G1 X78.34 Y72.04
G1 X70.94 Y75.06
G1 X64.28 Y78.60
G1 X58.36 Y82.64
G1 X53.18 Y87.19
G1 X48.75 Y92.25
G1 X45.06 Y97.82
G1 X42.11 Y103.89
G1 X39.90 Y110.47
G1 X38.44 Y117.56
G1 X37.71 Y125.16
G1 X37.73 Y133.27
G1 X38.50 Y141.88
G1 X40.00 Y151.00
G1 X40.00 Y151.00
G0 Z5.00
G0 X67.50 Y143.50
G1 Z0.00 F500
G1 X68.26 Y138.24 F1500
G1 X69.19 Y135.86
G1 X70.43 Y133.78
G1 X71.94 Y132.07
G1 X73.67 Y130.80
G1 X75.55 Y130.01
G1 X77.50 Y129.75
G1 X79.45 Y130.01
G1 X81.33 Y130.80
G1 X83.06 Y132.07
G1 X84.57 Y133.78
G1 X85.81 Y135.86
G1 X86.74 Y138.24
G1 X87.50 Y143.50
G1 X86.74 Y148.76
G1 X85.81 Y151.14
G1 X84.57 Y153.22
G1 X83.06 Y154.93
G1 X81.33 Y156.20
G1 X79.45 Y156.99
G1 X77.50 Y157.25
G1 X75.55 Y156.99
G1 X73.67 Y156.20
G1 X71.94 Y154.93
G1 X70.43 Y153.22
G1 X69.19 Y151.14
G1 X68.26 Y148.76
G1 X67.50 Y143.50
G0 Z5.00
G0 X78.25 Y147.25
G1 Z0.00 F500
G1 X78.48 Y146.10 F1500
G1 X79.13 Y145.13
G1 X80.10 Y144.48
G1 X81.25 Y144.25
G1 X82.40 Y144.48
G1 X83.37 Y145.13
G1 X84.02 Y146.10
G1 X84.25 Y147.25
G1 X84.02 Y148.40
G1 X83.37 Y149.37
G1 X82.40 Y150.02
G1 X81.25 Y150.25
G1 X80.10 Y150.02
G1 X79.13 Y149.37
G1 X78.48 Y148.40
G1 X78.25 Y147.25
G0 Z5.00
G0 X95.00 Y121.00
G1 Z0.00 F500
G1 X115.00 Y121.00 F1500
G1 X105.00 Y111.00
G1 X95.00 Y121.00
G0 Z5.00
G0 X105.00 Y111.00
G1 Z0.00 F500
G1 X104.77 Y108.07 F1500
G1 X104.06 Y105.53
G1 X102.89 Y103.38
G1 X101.25 Y101.63
G1 X99.14 Y100.26
G1 X96.56 Y99.28
G1 X93.52 Y98.70
G1 X90.00 Y98.50
G0 Z5.00
G0 X105.00 Y111.00
G1 Z0.00 F500
G1 X105.23 Y108.07 F1500
G1 X105.94 Y105.53
G1 X107.11 Y103.38
G1 X108.75 Y101.63
G1 X110.86 Y100.26
G1 X113.44 Y99.28
G1 X116.48 Y98.70
G1 X120.00 Y98.50
G0 Z5.00
G0 X147.50 Y108.50
G1 Z0.00 F500
G1 X200.00 Y101.00 F1500
G0 Z5.00
G0 X200.00 Y128.50
G1 Z0.00 F500
G1 X147.50 Y118.50 F1500
G0 Z5.00
G0 X133.25 Y147.25
G1 Z0.00 F500
G1 X133.48 Y148.40 F1500
G1 X134.13 Y149.37
G1 X135.10 Y150.02
G1 X136.25 Y150.25
G1 X137.40 Y150.02
G1 X138.37 Y149.37
G1 X139.02 Y148.40
G1 X139.25 Y147.25
G1 X139.02 Y146.10
G1 X138.37 Y145.13
G1 X137.40 Y144.48
G1 X136.25 Y144.25
G1 X135.10 Y144.48
G1 X134.13 Y145.13
G1 X133.48 Y146.10
G1 X133.25 Y147.25
G0 Z5.00
G0 X122.50 Y143.50
G1 Z0.00 F500
G1 X123.26 Y138.24 F1500
G1 X124.19 Y135.86
G1 X125.43 Y133.78
G1 X126.94 Y132.07
G1 X128.67 Y130.80
G1 X130.55 Y130.01
G1 X132.50 Y129.75
G1 X134.45 Y130.01
G1 X136.33 Y130.80
G1 X138.06 Y132.07
G1 X139.57 Y133.78
G1 X140.81 Y135.86
G1 X141.74 Y138.24
G1 X142.50 Y143.50
G1 X141.74 Y148.76
G1 X140.81 Y151.14
G1 X139.57 Y153.22
G1 X138.06 Y154.93
G1 X136.33 Y156.20
G1 X134.45 Y156.99
G1 X132.50 Y157.25
G1 X130.55 Y156.99
G1 X128.67 Y156.20
G1 X126.94 Y154.93
G1 X125.43 Y153.22
G1 X124.19 Y151.14
G1 X123.26 Y148.76
G1 X122.50 Y143.50
G0 Z5.00
G0 X140.00 Y191.00
G1 Z0.00 F500
G1 X165.00 Y211.00 F1500
G0 Z5.00
G0 X70.00 Y191.00
G1 Z0.00 F500
G1 X45.00 Y211.00 F1500
G0 Z5.00
G0 X0.00 Y0.00
M2 ; end of program
