; RoboSketch
; paper 210x297mm, margin 10mm, 12 strokes
G21 ; millimetres
G90 ; absolute positioning
G92 X0 Y0 ; pen is at X0 Y0 (paper bottom-left)
G0 Z5.00
G0 X76.76 Y106.14
G1 Z0.00 F500
G1 X80.01 Y103.33 F1500
G1 X83.34 Y101.32
G1 X86.75 Y100.12
G1 X90.24 Y99.72
G1 X93.81 Y100.12
G1 X97.46 Y101.32
G1 X101.19 Y103.33
G1 X105.00 Y106.14
G1 X105.00 Y119.49
G0 Z5.00
G0 X105.00 Y106.14
G1 Z0.00 F500
G1 X108.81 Y103.33 F1500
G1 X112.54 Y101.32
G1 X116.19 Y100.12
G1 X119.76 Y99.72
G1 X123.25 Y100.12
G1 X126.66 Y101.32
G1 X129.99 Y103.33
G1 X133.24 Y106.14
G0 Z5.00
G0 X113.99 Y99.72
G1 Z0.00 F500
G1 X111.74 Y94.38 F1500
G1 X109.49 Y90.57
G1 X107.25 Y88.28
G1 X105.00 Y87.52
G1 X102.75 Y88.28
G1 X100.51 Y90.57
G1 X98.26 Y94.38
G1 X96.01 Y99.72
G0 Z5.00
G0 X90.88 Y129.24
G1 Z0.00 F500
G1 X91.15 Y127.34 F1500
G1 X91.95 Y125.51
G1 X93.26 Y123.82
G1 X95.01 Y122.34
G1 X97.15 Y121.13
G1 X99.60 Y120.23
G1 X105.00 Y119.49
G1 X110.40 Y120.23
G1 X112.85 Y121.13
G1 X114.99 Y122.34
G1 X116.74 Y123.82
G1 X118.05 Y125.51
G1 X118.85 Y127.34
G1 X119.12 Y129.24
G1 X118.85 Y131.15
G1 X118.05 Y132.98
G1 X116.74 Y134.66
G1 X114.99 Y136.14
G1 X112.85 Y137.36
G1 X110.40 Y138.26
G1 X105.00 Y139.00
G1 X99.60 Y138.26
G1 X97.15 Y137.36
G1 X95.01 Y136.14
G1 X93.26 Y134.66
G1 X91.95 Y132.98
G1 X91.15 Y131.15
G1 X90.88 Y129.24
G0 Z5.00
G0 X81.89 Y162.62
G1 Z0.00 F500
G1 X82.09 Y161.64 F1500
G1 X82.64 Y160.81
G1 X83.48 Y160.25
G1 X84.46 Y160.05
G1 X85.44 Y160.25
G1 X86.28 Y160.81
G1 X86.83 Y161.64
G1 X87.03 Y162.62
G1 X86.83 Y163.60
G1 X86.28 Y164.44
G1 X85.44 Y164.99
G1 X84.46 Y165.19
G1 X83.48 Y164.99
G1 X82.64 Y164.44
G1 X82.09 Y163.60
G1 X81.89 Y162.62
G0 Z5.00
G0 X72.91 Y160.05
G1 Z0.00 F500
G1 X73.59 Y156.62 F1500
G1 X75.54 Y153.70
G1 X78.45 Y151.75
G1 X81.89 Y151.07
G1 X85.33 Y151.75
G1 X88.25 Y153.70
G1 X90.19 Y156.62
G1 X90.88 Y160.05
G1 X90.19 Y163.49
G1 X88.25 Y166.41
G1 X85.33 Y168.36
G1 X81.89 Y169.04
G1 X78.45 Y168.36
G1 X75.54 Y166.41
G1 X73.59 Y163.49
G1 X72.91 Y160.05
G0 Z5.00
G0 X56.22 Y183.16
G1 Z0.00 F500
G1 X54.29 Y178.99 F1500
G1 X52.36 Y174.18
G1 X50.44 Y168.72
G1 X48.51 Y162.62
G1 X46.59 Y155.88
G1 X44.66 Y148.50
G1 X42.74 Y140.48
G1 X40.81 Y131.81
G1 X37.38 Y130.71
G1 X34.15 Y129.97
G1 X31.12 Y129.58
G1 X28.29 Y129.56
G1 X25.67 Y129.91
G1 X23.24 Y130.61
G1 X21.01 Y131.67
G1 X18.99 Y133.09
G1 X17.16 Y134.88
G1 X15.54 Y137.03
G1 X14.11 Y139.53
G1 X12.89 Y142.40
G1 X11.87 Y145.63
G1 X11.04 Y149.22
G1 X10.42 Y153.17
G1 X10.00 Y157.49
G1 X10.48 Y164.28
G1 X11.28 Y170.52
G1 X12.41 Y176.23
G1 X13.85 Y181.40
G1 X15.62 Y186.02
G1 X17.70 Y190.10
G1 X20.11 Y193.64
G1 X22.84 Y196.64
G1 X25.89 Y199.10
G1 X29.26 Y201.01
G1 X32.95 Y202.39
G1 X36.96 Y203.22
G1 X41.29 Y203.51
G1 X45.95 Y203.26
G1 X50.92 Y202.47
G1 X56.22 Y201.14
G0 Z5.00
G0 X53.65 Y198.57
G1 Z0.00 F500
G1 X60.07 Y203.38 F1500
G1 X66.49 Y207.55
G1 X72.91 Y211.08
G1 X79.32 Y213.97
G1 X85.74 Y216.22
G1 X92.16 Y217.82
G1 X98.58 Y218.79
G1 X105.00 Y219.11
G1 X111.42 Y218.79
G1 X117.84 Y217.82
G1 X124.26 Y216.22
G1 X130.68 Y213.97
G1 X137.09 Y211.08
G1 X143.51 Y207.55
G1 X149.93 Y203.38
G1 X156.35 Y198.57
G1 X159.33 Y190.94
G1 X161.85 Y183.44
G1 X163.90 Y176.09
G1 X165.50 Y168.88
G1 X166.63 Y161.81
G1 X167.30 Y154.88
G1 X167.51 Y148.09
G1 X167.26 Y141.44
G1 X166.55 Y134.93
G1 X165.38 Y128.56
G1 X163.74 Y122.33
G1 X161.65 Y116.24
G1 X159.09 Y110.30
G1 X156.07 Y104.49
G1 X152.59 Y98.82
G1 X148.65 Y93.30
G1 X143.19 Y89.69
G1 X137.74 Y86.56
G1 X132.28 Y83.91
G1 X126.82 Y81.74
G1 X121.37 Y80.06
G1 X115.91 Y78.85
G1 X110.46 Y78.13
G1 X105.00 Y77.89
G1 X99.54 Y78.13
G1 X94.09 Y78.85
G1 X88.63 Y80.06
G1 X83.18 Y81.74
G1 X77.72 Y83.91
G1 X72.26 Y86.56
G1 X66.81 Y89.69
G1 X61.35 Y93.30
G1 X57.41 Y98.82
G1 X53.93 Y104.49
G1 X50.91 Y110.30
G1 X48.35 Y116.24
G1 X46.26 Y122.33
G1 X44.62 Y128.56
G1 X43.45 Y134.93
G1 X42.74 Y141.44
G1 X42.49 Y148.09
G1 X42.70 Y154.88
G1 X43.37 Y161.81
G1 X44.50 Y168.88
G1 X46.10 Y176.09
G1 X48.15 Y183.44
G1 X50.67 Y190.94
G1 X53.65 Y198.57
G1 X53.65 Y198.57
G0 Z5.00
G0 X112.70 Y183.16
G1 Z0.00 F500
G1 X117.20 Y185.93 F1500
G1 X121.69 Y187.82
G1 X126.18 Y188.82
G1 X130.68 Y188.94
G1 X135.17 Y188.18
G1 X139.66 Y186.53
G1 X144.16 Y184.00
G1 X148.65 Y180.59
G1 X147.81 Y177.06
G1 X146.56 Y174.18
G1 X144.92 Y171.93
G1 X142.87 Y170.32
G1 X140.42 Y169.36
G1 X137.58 Y169.04
G1 X134.33 Y169.36
G1 X130.68 Y170.32
G0 Z5.00
G0 X128.11 Y162.62
G1 Z0.00 F500
G1 X128.30 Y161.64 F1500
G1 X128.86 Y160.81
G1 X129.69 Y160.25
G1 X130.68 Y160.05
G1 X131.66 Y160.25
G1 X132.49 Y160.81
G1 X133.05 Y161.64
G1 X133.24 Y162.62
G1 X133.05 Y163.60
G1 X132.49 Y164.44
G1 X131.66 Y164.99
G1 X130.68 Y165.19
G1 X129.69 Y164.99
G1 X128.86 Y164.44
G1 X128.30 Y163.60
G1 X128.11 Y162.62
G0 Z5.00
G0 X119.12 Y160.05
G1 Z0.00 F500
G1 X119.81 Y156.62 F1500
G1 X121.75 Y153.70
G1 X124.67 Y151.75
G1 X128.11 Y151.07
G1 X131.55 Y151.75
G1 X134.46 Y153.70
G1 X136.41 Y156.62
G1 X137.09 Y160.05
G1 X136.41 Y163.49
G1 X134.46 Y166.41
G1 X131.55 Y168.36
G1 X128.11 Y169.04
G1 X124.67 Y168.36
G1 X121.75 Y166.41
G1 X119.81 Y163.49
G1 X119.12 Y160.05
G0 Z5.00
G0 X153.78 Y183.16
G1 Z0.00 F500
G1 X155.71 Y178.99 F1500
G1 X157.64 Y174.18
G1 X159.56 Y168.72
G1 X161.49 Y162.62
G1 X163.41 Y155.88
G1 X165.34 Y148.50
G1 X167.26 Y140.48
G1 X169.19 Y131.81
G1 X172.62 Y130.71
G1 X175.85 Y129.97
G1 X178.88 Y129.58
G1 X181.71 Y129.56
G1 X184.33 Y129.91
G1 X186.76 Y130.61
G1 X188.99 Y131.67
G1 X191.01 Y133.09
G1 X192.84 Y134.88
G1 X194.46 Y137.03
G1 X195.89 Y139.53
G1 X197.11 Y142.40
G1 X198.13 Y145.63
G1 X198.96 Y149.22
G1 X199.58 Y153.17
G1 X200.00 Y157.49
G1 X199.52 Y164.28
G1 X198.72 Y170.52
G1 X197.59 Y176.23
G1 X196.15 Y181.40
G1 X194.38 Y186.02
G1 X192.30 Y190.10
G1 X189.89 Y193.64
G1 X187.16 Y196.64
G1 X184.11 Y199.10
G1 X180.74 Y201.01
G1 X177.05 Y202.39
G1 X173.04 Y203.22
G1 X168.71 Y203.51
G1 X164.05 Y203.26
G1 X159.08 Y202.47
G1 X153.78 Y201.14
G0 Z5.00
G0 X0.00 Y0.00
M2 ; end of program
