; RoboSketch
; paper 210x297mm, margin 10mm, 11 strokes
G21 ; millimetres
G90 ; absolute positioning
G0 Z5
G0 X26.96 Y105.60 F3000
G1 Z0
G1 X29.43 Y103.98 F1500
G1 X31.96 Y102.73 F1500
G1 X34.58 Y101.86 F1500
G1 X37.26 Y101.36 F1500
G1 X40.03 Y101.25 F1500
G1 X42.87 Y101.51 F1500
G1 X45.78 Y102.16 F1500
G1 X48.78 Y103.18 F1500
G0 Z5
G0 X43.44 Y128.63 F3000
G1 Z0
G1 X43.67 Y127.51 F1500
G1 X44.30 Y126.57 F1500
G1 X45.24 Y125.94 F1500
G1 X46.35 Y125.72 F1500
G1 X47.46 Y125.94 F1500
G1 X48.41 Y126.57 F1500
G1 X49.04 Y127.51 F1500
G1 X49.26 Y128.63 F1500
G1 X49.04 Y129.74 F1500
G1 X48.41 Y130.68 F1500
G1 X47.46 Y131.31 F1500
G1 X46.35 Y131.54 F1500
G1 X45.24 Y131.31 F1500
G1 X44.30 Y130.68 F1500
G1 X43.67 Y129.74 F1500
G1 X43.44 Y128.63 F1500
G0 Z5
G0 X35.45 Y127.42 F3000
G1 Z0
G1 X36.09 Y124.17 F1500
G1 X37.93 Y121.42 F1500
G1 X40.68 Y119.58 F1500
G1 X43.93 Y118.93 F1500
G1 X47.17 Y119.58 F1500
G1 X49.93 Y121.42 F1500
G1 X51.77 Y124.17 F1500
G1 X52.41 Y127.42 F1500
G1 X51.77 Y130.66 F1500
G1 X49.93 Y133.41 F1500
G1 X47.17 Y135.25 F1500
G1 X43.93 Y135.90 F1500
G1 X40.68 Y135.25 F1500
G1 X37.93 Y133.41 F1500
G1 X36.09 Y130.66 F1500
G1 X35.45 Y127.42 F1500
G0 Z5
G0 X12.42 Y117.72 F3000
G1 Z0
G1 X19.13 Y125.73 F1500
G1 X25.90 Y132.79 F1500
G1 X32.76 Y138.91 F1500
G1 X39.69 Y144.08 F1500
G1 X46.69 Y148.30 F1500
G1 X53.77 Y151.57 F1500
G1 X60.93 Y153.90 F1500
G1 X68.16 Y155.29 F1500
G1 X75.47 Y155.72 F1500
G1 X82.86 Y155.21 F1500
G1 X90.32 Y153.75 F1500
G1 X97.85 Y151.35 F1500
G1 X105.46 Y148.00 F1500
G1 X113.15 Y143.70 F1500
G1 X120.91 Y138.45 F1500
G1 X128.75 Y132.26 F1500
G1 X172.37 Y163.77 F1500
G1 X165.10 Y117.72 F1500
G1 X172.37 Y71.68 F1500
G1 X128.75 Y103.18 F1500
G1 X120.91 Y96.99 F1500
G1 X113.15 Y91.75 F1500
G1 X105.46 Y87.45 F1500
G1 X97.85 Y84.10 F1500
G1 X90.32 Y81.69 F1500
G1 X82.86 Y80.23 F1500
G1 X75.47 Y79.72 F1500
G1 X68.16 Y80.16 F1500
G1 X60.93 Y81.54 F1500
G1 X53.77 Y83.87 F1500
G1 X46.69 Y87.14 F1500
G1 X39.69 Y91.37 F1500
G1 X32.76 Y96.54 F1500
G1 X25.90 Y102.65 F1500
G1 X19.13 Y109.71 F1500
G1 X12.42 Y117.72 F1500
G1 X12.42 Y117.72 F1500
G0 Z5
G0 X65.74 Y154.07 F3000
G1 Z0
G1 X68.49 Y157.74 F1500
G1 X71.27 Y160.85 F1500
G1 X74.09 Y163.42 F1500
G1 X76.95 Y165.43 F1500
G1 X79.85 Y166.90 F1500
G1 X82.78 Y167.82 F1500
G1 X85.75 Y168.19 F1500
G1 X88.76 Y168.01 F1500
G1 X91.81 Y167.28 F1500
G1 X94.90 Y166.00 F1500
G1 X98.02 Y164.17 F1500
G1 X101.18 Y161.80 F1500
G1 X104.38 Y158.87 F1500
G1 X107.62 Y155.40 F1500
G1 X110.90 Y151.38 F1500
G1 X114.21 Y146.80 F1500
G0 Z5
G0 X106.94 Y132.26 F3000
G1 Z0
G1 X109.06 Y129.84 F1500
G1 X110.57 Y127.42 F1500
G1 X111.48 Y124.99 F1500
G1 X111.79 Y122.57 F1500
G1 X111.48 Y120.15 F1500
G1 X110.57 Y117.72 F1500
G1 X109.06 Y115.30 F1500
G1 X106.94 Y112.87 F1500
G1 X109.06 Y110.45 F1500
G1 X110.57 Y108.03 F1500
G1 X111.48 Y105.60 F1500
G1 X111.79 Y103.18 F1500
G1 X111.48 Y100.76 F1500
G1 X110.57 Y98.33 F1500
G1 X109.06 Y95.91 F1500
G1 X106.94 Y93.49 F1500
G0 Z5
G0 X89.97 Y98.33 F3000
G1 Z0
G1 X92.10 Y100.76 F1500
G1 X93.61 Y103.18 F1500
G1 X94.52 Y105.60 F1500
G1 X94.82 Y108.03 F1500
G1 X94.52 Y110.45 F1500
G1 X93.61 Y112.87 F1500
G1 X92.10 Y115.30 F1500
G1 X89.97 Y117.72 F1500
G1 X92.10 Y120.15 F1500
G1 X93.61 Y122.57 F1500
G1 X94.52 Y124.99 F1500
G1 X94.82 Y127.42 F1500
G1 X94.52 Y129.84 F1500
G1 X93.61 Y132.26 F1500
G1 X92.10 Y134.69 F1500
G1 X89.97 Y137.11 F1500
G0 Z5
G0 X70.59 Y149.23 F3000
G1 Z0
G1 X73.77 Y141.35 F1500
G1 X76.04 Y133.47 F1500
G1 X77.40 Y125.60 F1500
G1 X77.86 Y117.72 F1500
G1 X77.40 Y109.85 F1500
G1 X76.04 Y101.97 F1500
G1 X73.77 Y94.09 F1500
G1 X70.59 Y86.22 F1500
G0 Z5
G0 X182.07 Y180.73 F3000
G1 Z0
G1 X182.62 Y177.95 F1500
G1 X184.20 Y175.59 F1500
G1 X186.55 Y174.02 F1500
G1 X189.34 Y173.46 F1500
G1 X192.12 Y174.02 F1500
G1 X194.48 Y175.59 F1500
G1 X196.05 Y177.95 F1500
G1 X196.61 Y180.73 F1500
G1 X196.05 Y183.51 F1500
G1 X194.48 Y185.87 F1500
G1 X192.12 Y187.45 F1500
G1 X189.34 Y188.00 F1500
G1 X186.55 Y187.45 F1500
G1 X184.20 Y185.87 F1500
G1 X182.62 Y183.51 F1500
G1 X182.07 Y180.73 F1500
G0 Z5
G0 X174.80 Y204.97 F3000
G1 Z0
G1 X175.16 Y203.11 F1500
G1 X176.22 Y201.54 F1500
G1 X177.79 Y200.49 F1500
G1 X179.64 Y200.12 F1500
G1 X181.50 Y200.49 F1500
G1 X183.07 Y201.54 F1500
G1 X184.12 Y203.11 F1500
G1 X184.49 Y204.97 F1500
G1 X184.12 Y206.82 F1500
G1 X183.07 Y208.39 F1500
G1 X181.50 Y209.44 F1500
G1 X179.64 Y209.81 F1500
G1 X177.79 Y209.44 F1500
G1 X176.22 Y208.39 F1500
G1 X175.16 Y206.82 F1500
G1 X174.80 Y204.97 F1500
G0 Z5
G0 X190.79 Y221.93 F3000
G1 Z0
G1 X191.05 Y220.63 F1500
G1 X191.78 Y219.53 F1500
G1 X192.89 Y218.80 F1500
G1 X194.18 Y218.54 F1500
G1 X195.48 Y218.80 F1500
G1 X196.58 Y219.53 F1500
G1 X197.32 Y220.63 F1500
G1 X197.58 Y221.93 F1500
G1 X197.32 Y223.23 F1500
G1 X196.58 Y224.33 F1500
G1 X195.48 Y225.07 F1500
G1 X194.18 Y225.32 F1500
G1 X192.89 Y225.07 F1500
G1 X191.78 Y224.33 F1500
G1 X191.05 Y223.23 F1500
G1 X190.79 Y221.93 F1500
G0 Z5
G0 X210.00 Y297.00 F3000
