; RoboSketch
; paper 210x297mm, margin 10mm, 11 strokes
G21 ; millimetres
G90 ; absolute positioning
G0 Z5.00
G0 X13.06 Y19.79
G1 Z0.00 F500
G1 X196.94 Y19.79 F1500
G0 Z5.00
G0 X105.00 Y19.79
G1 Z0.00 F500
G1 X102.99 Y34.92 F1500
G1 X101.55 Y49.67
G1 X100.69 Y64.03
G1 X100.40 Y78.02
G1 X100.69 Y91.61
G1 X101.55 Y104.83
G1 X102.99 Y117.66
G1 X105.00 Y130.11
G0 Z5.00
G0 X101.94 Y87.21
G1 Z0.00 F500
G1 X97.04 Y91.57 F1500
G1 X92.31 Y95.45
G1 X87.75 Y98.85
G1 X83.36 Y101.77
G1 X79.13 Y104.21
G1 X75.07 Y106.17
G1 X71.18 Y107.66
G1 X67.46 Y108.66
G1 X63.90 Y109.19
G1 X60.52 Y109.24
G1 X57.30 Y108.80
G1 X54.24 Y107.90
G1 X51.36 Y106.51
G1 X48.64 Y104.64
G1 X46.09 Y102.29
G1 X43.71 Y99.47
G1 X49.98 Y92.43
G1 X56.54 Y86.64
G1 X63.39 Y82.09
G1 X70.52 Y78.78
G1 X77.95 Y76.72
G1 X85.66 Y75.91
G1 X93.65 Y76.34
G1 X101.94 Y78.02
G0 Z5.00
G0 X105.00 Y59.63
G1 Z0.00 F500
G1 X114.67 Y67.24 F1500
G1 X123.77 Y73.23
G1 X132.29 Y77.59
G1 X140.24 Y80.31
G1 X147.62 Y81.42
G1 X154.42 Y80.89
G1 X160.64 Y78.73
G1 X166.29 Y74.95
G1 X159.97 Y67.86
G1 X153.27 Y61.93
G1 X146.18 Y57.14
G1 X138.71 Y53.50
G1 X130.86 Y51.01
G1 X122.62 Y49.67
G1 X114.00 Y49.48
G1 X105.00 Y50.44
G0 Z5.00
G0 X105.00 Y185.27
G1 Z0.00 F500
G1 X99.64 Y177.78 F1500
G1 X95.81 Y170.45
G1 X93.51 Y163.30
G1 X92.74 Y156.31
G1 X93.51 Y149.51
G1 X95.81 Y142.87
G1 X99.64 Y136.40
G1 X105.00 Y130.11
G1 X110.36 Y136.40
G1 X114.19 Y142.87
G1 X116.49 Y149.51
G1 X117.26 Y156.31
G1 X116.49 Y163.30
G1 X114.19 Y170.45
G1 X110.36 Y177.78
G1 X105.00 Y185.27
G0 Z5.00
G0 X120.94 Y194.47
G1 Z0.00 F500
G1 X124.75 Y186.07 F1500
G1 X129.17 Y179.09
G1 X134.21 Y173.52
G1 X139.87 Y169.37
G1 X146.15 Y166.63
G1 X153.04 Y165.30
G1 X160.55 Y165.39
G1 X168.68 Y166.89
G1 X165.92 Y174.68
G1 X162.24 Y181.23
G1 X157.64 Y186.54
G1 X152.13 Y190.61
G1 X145.71 Y193.43
G1 X138.36 Y195.02
G1 X130.11 Y195.36
G1 X120.94 Y194.47
G0 Z5.00
G0 X120.94 Y212.85
G1 Z0.00 F500
G1 X130.11 Y211.96 F1500
G1 X138.36 Y212.30
G1 X145.71 Y213.89
G1 X152.13 Y216.72
G1 X157.64 Y220.78
G1 X162.24 Y226.09
G1 X165.92 Y232.64
G1 X168.68 Y240.44
G1 X160.55 Y241.94
G1 X153.04 Y242.02
G1 X146.15 Y240.69
G1 X139.87 Y237.95
G1 X134.21 Y233.80
G1 X129.17 Y228.23
G1 X124.75 Y221.25
G1 X120.94 Y212.85
G0 Z5.00
G0 X105.00 Y222.05
G1 Z0.00 F500
G1 X110.36 Y229.55 F1500
G1 X114.19 Y236.87
G1 X116.49 Y244.03
G1 X117.26 Y251.01
G1 X116.49 Y257.82
G1 X114.19 Y264.45
G1 X110.36 Y270.92
G1 X105.00 Y277.21
G1 X99.64 Y270.92
G1 X95.81 Y264.45
G1 X93.51 Y257.82
G1 X92.74 Y251.01
G1 X93.51 Y244.03
G1 X95.81 Y236.87
G1 X99.64 Y229.55
G1 X105.00 Y222.05
G0 Z5.00
G0 X89.06 Y212.85
G1 Z0.00 F500
G1 X85.25 Y221.25 F1500
G1 X80.83 Y228.23
G1 X75.79 Y233.80
G1 X70.13 Y237.95
G1 X63.85 Y240.69
G1 X56.96 Y242.02
G1 X49.45 Y241.94
G1 X41.32 Y240.44
G1 X44.08 Y232.64
G1 X47.76 Y226.09
G1 X52.36 Y220.78
G1 X57.87 Y216.72
G1 X64.29 Y213.89
G1 X71.64 Y212.30
G1 X79.89 Y211.96
G1 X89.06 Y212.85
G0 Z5.00
G0 X86.61 Y203.66
G1 Z0.00 F500
G1 X86.97 Y200.07 F1500
G1 X88.01 Y196.62
G1 X89.71 Y193.45
G1 X92.00 Y190.66
G1 X94.78 Y188.37
G1 X97.96 Y186.67
G1 X101.41 Y185.63
G1 X105.00 Y185.27
G1 X108.59 Y185.63
G1 X112.04 Y186.67
G1 X115.22 Y188.37
G1 X118.00 Y190.66
G1 X120.29 Y193.45
G1 X121.99 Y196.62
G1 X123.03 Y200.07
G1 X123.39 Y203.66
G1 X123.03 Y207.25
G1 X121.99 Y210.70
G1 X120.29 Y213.88
G1 X118.00 Y216.66
G1 X115.22 Y218.95
G1 X112.04 Y220.65
G1 X108.59 Y221.70
G1 X105.00 Y222.05
G1 X101.41 Y221.70
G1 X97.96 Y220.65
G1 X94.78 Y218.95
G1 X92.00 Y216.66
G1 X89.71 Y213.88
G1 X88.01 Y210.70
G1 X86.97 Y207.25
G1 X86.61 Y203.66
G0 Z5.00
G0 X89.06 Y194.47
G1 Z0.00 F500
G1 X79.89 Y195.36 F1500
G1 X71.64 Y195.02
G1 X64.29 Y193.43
G1 X57.87 Y190.61
G1 X52.36 Y186.54
G1 X47.76 Y181.23
G1 X44.08 Y174.68
G1 X41.32 Y166.89
G1 X49.45 Y165.39
G1 X56.96 Y165.30
G1 X63.85 Y166.63
G1 X70.13 Y169.37
G1 X75.79 Y173.52
G1 X80.83 Y179.09
G1 X85.25 Y186.07
G1 X89.06 Y194.47
G0 Z5.00
G0 X0.00 Y297.00
