; RoboSketch
; paper 210x297mm, margin 10mm, 15 strokes
G21 ; millimetres
G90 ; absolute positioning
G92 X0 Y0 ; pen is at X0 Y0 (paper bottom-left)
G0 Z5.00
G0 X10.00 Y52.37
G1 Z0.00 F500
G1 X200.00 Y52.37 F1500
G0 Z5.00
G0 X195.48 Y52.37
G1 Z0.00 F500
G1 X195.26 Y57.67 F1500
G1 X194.63 Y62.26
G1 X193.57 Y66.15
G1 X192.08 Y69.33
G1 X190.17 Y71.81
G1 X187.84 Y73.57
G1 X185.09 Y74.63
G1 X181.90 Y74.99
G1 X178.72 Y74.63
G1 X175.97 Y73.57
G1 X173.63 Y71.81
G1 X171.73 Y69.33
G1 X170.24 Y66.15
G1 X169.18 Y62.26
G1 X168.55 Y57.67
G1 X168.33 Y52.37
G0 Z5.00
G0 X136.67 Y102.13
G1 Z0.00 F500
G1 X136.67 Y124.75 F1500
G0 Z5.00
G0 X125.36 Y124.75
G1 Z0.00 F500
G1 X147.98 Y124.75 F1500
G1 X147.98 Y102.13
G1 X125.36 Y102.13
G1 X125.36 Y124.75
G0 Z5.00
G0 X125.36 Y113.44
G1 Z0.00 F500
G1 X147.98 Y113.44 F1500
G0 Z5.00
G0 X177.38 Y133.80
G1 Z0.00 F500
G1 X105.00 Y197.13 F1500
G1 X32.62 Y133.80
G0 Z5.00
G0 X50.71 Y149.63
G1 Z0.00 F500
G1 X50.71 Y52.37 F1500
G1 X159.29 Y52.37
G1 X159.29 Y149.63
G0 Z5.00
G0 X150.24 Y154.15
G1 Z0.00 F500
G1 X150.24 Y201.65 F1500
G1 X132.14 Y201.65
G1 X132.14 Y169.99
G0 Z5.00
G0 X141.19 Y208.44
G1 Z0.00 F500
G1 X138.72 Y210.70 F1500
G1 X136.95 Y212.96
G1 X135.89 Y215.23
G1 X135.54 Y217.49
G1 X135.89 Y219.75
G1 X136.95 Y222.01
G1 X138.72 Y224.27
G1 X141.19 Y226.54
G1 X143.66 Y228.80
G1 X145.43 Y231.06
G1 X146.49 Y233.32
G1 X146.85 Y235.58
G1 X146.49 Y237.85
G1 X145.43 Y240.11
G1 X143.66 Y242.37
G1 X141.19 Y244.63
G0 Z5.00
G0 X73.33 Y124.75
G1 Z0.00 F500
G1 X73.33 Y102.13 F1500
G0 Z5.00
G0 X62.02 Y113.44
G1 Z0.00 F500
G1 X84.64 Y113.44 F1500
G0 Z5.00
G0 X91.43 Y106.65
G1 Z0.00 F500
G1 X118.57 Y106.65 F1500
G1 X118.57 Y52.37
G1 X91.43 Y52.37
G1 X91.43 Y106.65
G0 Z5.00
G0 X109.52 Y77.25
G1 Z0.00 F500
G1 X109.70 Y76.38 F1500
G1 X110.19 Y75.65
G1 X110.92 Y75.16
G1 X111.79 Y74.99
G1 X112.65 Y75.16
G1 X113.39 Y75.65
G1 X113.88 Y76.38
G1 X114.05 Y77.25
G1 X113.88 Y78.12
G1 X113.39 Y78.85
G1 X112.65 Y79.34
G1 X111.79 Y79.51
G1 X110.92 Y79.34
G1 X110.19 Y78.85
G1 X109.70 Y78.12
G1 X109.52 Y77.25
G0 Z5.00
G0 X62.02 Y124.75
G1 Z0.00 F500
G1 X84.64 Y124.75 F1500
G1 X84.64 Y102.13
G1 X62.02 Y102.13
G1 X62.02 Y124.75
G0 Z5.00
G0 X46.19 Y52.37
G1 Z0.00 F500
G1 X46.01 Y56.61 F1500
G1 X45.48 Y60.29
G1 X44.60 Y63.40
G1 X43.36 Y65.94
G1 X41.77 Y67.92
G1 X39.83 Y69.33
G1 X37.53 Y70.18
G1 X34.88 Y70.46
G1 X32.23 Y70.18
G1 X29.93 Y69.33
G1 X27.99 Y67.92
G1 X26.40 Y65.94
G1 X25.16 Y63.40
G1 X24.28 Y60.29
G1 X23.75 Y56.61
G1 X23.57 Y52.37
G0 Z5.00
G0 X0.00 Y0.00
M2 ; end of program
