; RoboSketch
; paper 210x297mm, margin 10mm, 10 strokes
G21 ; millimetres
G90 ; absolute positioning
G92 X0 Y0 ; pen is at X0 Y0 (paper bottom-left)
G0 Z5.00
G0 X94.30 Y42.09
G1 Z0.00 F500
G1 X129.96 Y84.89 F1500
G0 Z5.00
G0 X125.50 Y71.51
G1 Z0.00 F500
G1 X70.23 Y114.30 F1500
G0 Z5.00
G0 X74.69 Y100.93
G1 Z0.00 F500
G1 X149.57 Y143.72 F1500
G1 X105.00 Y10.00
G1 X60.43 Y143.72
G1 X135.31 Y100.93
G0 Z5.00
G0 X139.77 Y114.30
G1 Z0.00 F500
G1 X84.50 Y71.51 F1500
G0 Z5.00
G0 X80.04 Y84.89
G1 Z0.00 F500
G1 X115.70 Y42.09 F1500
G0 Z5.00
G0 X54.06 Y137.36
G1 Z0.00 F500
G1 X48.49 Y143.72 F1500
G1 X44.51 Y150.09
G1 X42.12 Y156.46
G1 X41.32 Y162.83
G1 X42.12 Y169.20
G1 X44.51 Y175.56
G1 X48.49 Y181.93
G1 X54.06 Y188.30
G1 X54.65 Y197.25
G1 X56.45 Y205.01
G1 X59.43 Y211.58
G1 X63.61 Y216.95
G1 X68.98 Y221.13
G1 X75.55 Y224.12
G1 X83.31 Y225.91
G1 X92.26 Y226.51
G1 X95.55 Y230.73
G1 X99.03 Y233.87
G1 X102.71 Y235.91
G1 X106.59 Y236.85
G1 X110.67 Y236.70
G1 X114.95 Y235.46
G1 X119.43 Y233.12
G1 X124.10 Y229.69
G1 X132.96 Y228.35
G1 X140.42 Y225.91
G1 X146.49 Y222.38
G1 X151.17 Y217.75
G1 X154.45 Y212.03
G1 X156.34 Y205.21
G1 X156.84 Y197.30
G1 X155.94 Y188.30
G1 X161.51 Y181.93
G1 X165.49 Y175.56
G1 X167.88 Y169.20
G1 X168.68 Y162.83
G1 X167.88 Y156.46
G1 X165.49 Y150.09
G1 X161.51 Y143.72
G1 X155.94 Y137.36
G1 X152.76 Y140.14
G1 X149.57 Y142.13
G1 X146.39 Y143.33
G1 X143.21 Y143.72
G1 X140.02 Y143.33
G1 X136.84 Y142.13
G1 X133.66 Y140.14
G1 X130.47 Y137.36
G1 X127.29 Y140.14
G1 X124.10 Y142.13
G1 X120.92 Y143.33
G1 X117.74 Y143.72
G1 X114.55 Y143.33
G1 X111.37 Y142.13
G1 X108.18 Y140.14
G1 X105.00 Y137.36
G1 X101.82 Y140.14
G1 X98.63 Y142.13
G1 X95.45 Y143.33
G1 X92.26 Y143.72
G1 X89.08 Y143.33
G1 X85.90 Y142.13
G1 X82.71 Y140.14
G1 X79.53 Y137.36
G1 X76.34 Y140.14
G1 X73.16 Y142.13
G1 X69.98 Y143.33
G1 X66.79 Y143.72
G1 X63.61 Y143.33
G1 X60.43 Y142.13
G1 X57.24 Y140.14
G1 X54.06 Y137.36
G1 X54.06 Y137.36
G0 Z5.00
G0 X73.16 Y188.30
G1 Z0.00 F500
G1 X76.34 Y191.08 F1500
G1 X79.53 Y193.07
G1 X82.71 Y194.27
G1 X85.90 Y194.67
G1 X89.08 Y194.27
G1 X92.26 Y193.07
G1 X95.45 Y191.08
G1 X98.63 Y188.30
G0 Z5.00
G0 X117.74 Y201.03
G1 Z0.00 F500
G1 X120.12 Y203.12 F1500
G1 X122.51 Y204.62
G1 X124.90 Y205.51
G1 X127.29 Y205.81
G1 X129.68 Y205.51
G1 X132.06 Y204.62
G1 X134.45 Y203.12
G1 X136.84 Y201.03
G0 Z5.00
G0 X92.26 Y255.16
G1 Z0.00 F500
G1 X93.23 Y250.29 F1500
G1 X95.99 Y246.16
G1 X100.13 Y243.39
G1 X105.00 Y242.43
G1 X109.87 Y243.39
G1 X114.01 Y246.16
G1 X116.77 Y250.29
G1 X117.74 Y255.16
G1 X116.77 Y260.03
G1 X114.01 Y264.17
G1 X109.87 Y266.93
G1 X105.00 Y267.90
G1 X100.13 Y266.93
G1 X95.99 Y264.17
G1 X93.23 Y260.03
G1 X92.26 Y255.16
G0 Z5.00
G0 X108.18 Y267.90
G1 Z0.00 F500
G1 X109.93 Y271.68 F1500
G1 X111.96 Y275.06
G1 X114.30 Y278.05
G1 X116.94 Y280.63
G1 X119.87 Y282.82
G1 X123.11 Y284.61
G1 X126.64 Y286.01
G1 X130.47 Y287.00
G0 Z5.00
G0 X0.00 Y0.00
M2 ; end of program
