; RoboSketch
; paper 210x297mm, margin 10mm, 16 strokes
G21 ; millimetres
G90 ; absolute positioning
G92 X0 Y0 ; pen is at X0 Y0 (paper bottom-left)
G0 Z5.00
G0 X10.00 Y49.75
G1 Z0.00 F500
G1 X200.00 Y49.75 F1500
G0 Z5.00
G0 X147.50 Y84.75
G1 Z0.00 F500
G1 X151.33 Y90.07 F1500
G1 X154.69 Y95.41
G1 X157.58 Y100.78
G1 X160.00 Y106.16
G1 X161.95 Y111.56
G1 X163.44 Y116.98
G1 X164.45 Y122.42
G1 X165.00 Y127.88
G1 X165.08 Y133.35
G1 X164.69 Y138.85
G1 X163.83 Y144.37
G1 X162.50 Y149.91
G1 X160.70 Y155.46
G1 X158.44 Y161.04
G1 X155.70 Y166.63
G1 X152.50 Y172.25
G0 Z5.00
G0 X115.00 Y184.75
G1 Z0.00 F500
G1 X115.67 Y181.40 F1500
G1 X117.56 Y178.56
G1 X120.40 Y176.67
G1 X123.75 Y176.00
G1 X127.10 Y176.67
G1 X129.94 Y178.56
G1 X131.83 Y181.40
G1 X132.50 Y184.75
G1 X131.83 Y188.10
G1 X129.94 Y190.94
G1 X127.10 Y192.83
G1 X123.75 Y193.50
G1 X120.40 Y192.83
G1 X117.56 Y190.94
G1 X115.67 Y188.10
G1 X115.00 Y184.75
G0 Z5.00
G0 X105.00 Y187.25
G1 Z0.00 F500
G1 X105.43 Y182.86 F1500
G1 X106.71 Y178.64
G1 X108.79 Y174.75
G1 X111.59 Y171.34
G1 X115.00 Y168.54
G1 X118.89 Y166.46
G1 X123.11 Y165.18
G1 X127.50 Y164.75
G1 X131.89 Y165.18
G1 X136.11 Y166.46
G1 X140.00 Y168.54
G1 X143.41 Y171.34
G1 X146.21 Y174.75
G1 X148.29 Y178.64
G1 X149.57 Y182.86
G1 X150.00 Y187.25
G1 X149.57 Y191.64
G1 X148.29 Y195.86
G1 X146.21 Y199.75
G1 X143.41 Y203.16
G1 X140.00 Y205.96
G1 X136.11 Y208.04
G1 X131.89 Y209.32
G1 X127.50 Y209.75
G1 X123.11 Y209.32
G1 X118.89 Y208.04
G1 X115.00 Y205.96
G1 X111.59 Y203.16
G1 X108.79 Y199.75
G1 X106.71 Y195.86
G1 X105.43 Y191.64
G1 X105.00 Y187.25
G0 Z5.00
G0 X96.25 Y164.75
G1 Z0.00 F500
G1 X105.00 Y144.75 F1500
G1 X113.75 Y164.75
G1 X96.25 Y164.75
G0 Z5.00
G0 X77.50 Y184.75
G1 Z0.00 F500
G1 X78.17 Y181.40 F1500
G1 X80.06 Y178.56
G1 X82.90 Y176.67
G1 X86.25 Y176.00
G1 X89.60 Y176.67
G1 X92.44 Y178.56
G1 X94.33 Y181.40
G1 X95.00 Y184.75
G1 X94.33 Y188.10
G1 X92.44 Y190.94
G1 X89.60 Y192.83
G1 X86.25 Y193.50
G1 X82.90 Y192.83
G1 X80.06 Y190.94
G1 X78.17 Y188.10
G1 X77.50 Y184.75
G0 Z5.00
G0 X60.00 Y187.25
G1 Z0.00 F500
G1 X60.43 Y182.86 F1500
G1 X61.71 Y178.64
G1 X63.79 Y174.75
G1 X66.59 Y171.34
G1 X70.00 Y168.54
G1 X73.89 Y166.46
G1 X78.11 Y165.18
G1 X82.50 Y164.75
G1 X86.89 Y165.18
G1 X91.11 Y166.46
G1 X95.00 Y168.54
G1 X98.41 Y171.34
G1 X101.21 Y174.75
G1 X103.29 Y178.64
G1 X104.57 Y182.86
G1 X105.00 Y187.25
G1 X104.57 Y191.64
G1 X103.29 Y195.86
G1 X101.21 Y199.75
G1 X98.41 Y203.16
G1 X95.00 Y205.96
G1 X91.11 Y208.04
G1 X86.89 Y209.32
G1 X82.50 Y209.75
G1 X78.11 Y209.32
G1 X73.89 Y208.04
G1 X70.00 Y205.96
G1 X66.59 Y203.16
G1 X63.79 Y199.75
G1 X61.71 Y195.86
G1 X60.43 Y191.64
G1 X60.00 Y187.25
G0 Z5.00
G0 X57.50 Y172.25
G1 Z0.00 F500
G1 X54.30 Y166.63 F1500
G1 X51.56 Y161.04
G1 X49.30 Y155.46
G1 X47.50 Y149.91
G1 X46.17 Y144.37
G1 X45.31 Y138.85
G1 X44.92 Y133.35
G1 X45.00 Y127.88
G1 X45.55 Y122.42
G1 X46.56 Y116.98
G1 X48.05 Y111.56
G1 X50.00 Y106.16
G1 X52.42 Y100.78
G1 X55.31 Y95.41
G1 X58.67 Y90.07
G1 X62.50 Y84.75
G0 Z5.00
G0 X85.00 Y64.75
G1 Z0.00 F500
G1 X80.00 Y49.75 F1500
G0 Z5.00
G0 X92.50 Y47.25
G1 Z0.00 F500
G1 X92.50 Y62.25 F1500
G0 Z5.00
G0 X117.50 Y62.25
G1 Z0.00 F500
G1 X117.50 Y47.25 F1500
G0 Z5.00
G0 X130.00 Y49.75
G1 Z0.00 F500
G1 X125.00 Y64.75 F1500
G0 Z5.00
G0 X112.50 Y107.25
G1 Z0.00 F500
G1 X105.00 Y97.25 F1500
G1 X97.50 Y107.25
G0 Z5.00
G0 X97.50 Y127.25
G1 Z0.00 F500
G1 X90.00 Y117.25 F1500
G1 X82.50 Y127.25
G0 Z5.00
G0 X112.50 Y127.25
G1 Z0.00 F500
G1 X120.00 Y117.25 F1500
G1 X127.50 Y127.25
G0 Z5.00
G0 X55.00 Y207.25
G1 Z0.00 F500
G1 X47.50 Y249.75 F1500
G1 X80.00 Y222.25
G1 X86.25 Y223.89
G1 X92.50 Y225.06
G1 X98.75 Y225.77
G1 X105.00 Y226.00
G1 X111.25 Y225.77
G1 X117.50 Y225.06
G1 X123.75 Y223.89
G1 X130.00 Y222.25
G1 X162.50 Y249.75
G1 X155.00 Y207.25
G1 X156.09 Y195.00
G1 X156.88 Y183.27
G1 X157.34 Y172.04
G1 X157.50 Y161.31
G1 X157.34 Y151.10
G1 X156.88 Y141.39
G1 X156.09 Y132.19
G1 X155.00 Y123.50
G1 X153.59 Y115.32
G1 X151.88 Y107.64
G1 X149.84 Y100.47
G1 X147.50 Y93.81
G1 X144.84 Y87.66
G1 X141.88 Y82.02
G1 X138.59 Y76.88
G1 X135.00 Y72.25
G1 X127.50 Y67.88
G1 X120.00 Y64.75
G1 X112.50 Y62.88
G1 X105.00 Y62.25
G1 X97.50 Y62.88
G1 X90.00 Y64.75
G1 X82.50 Y67.88
G1 X75.00 Y72.25
G1 X71.41 Y76.88
G1 X68.13 Y82.02
G1 X65.16 Y87.66
G1 X62.50 Y93.81
G1 X60.16 Y100.47
G1 X58.13 Y107.64
G1 X56.41 Y115.32
G1 X55.00 Y123.50
G1 X53.91 Y132.19
G1 X53.13 Y141.39
G1 X52.66 Y151.10
G1 X52.50 Y161.31
G1 X52.66 Y172.04
G1 X53.13 Y183.27
G1 X53.91 Y195.00
G1 X55.00 Y207.25
G1 X55.00 Y207.25
G0 Z5.00
G0 X0.00 Y0.00
M2 ; end of program
