; RoboSketch
; paper 210x297mm, margin 10mm, 24 strokes
G21 ; millimetres
G90 ; absolute positioning
G92 X0 Y0 ; pen is at X0 Y0 (paper bottom-left)
G0 Z5.00
G0 X15.43 Y69.79
G1 Z0.00 F500
G1 X10.00 Y91.50 F1500
G1 X39.86 Y118.64
G0 Z5.00
G0 X50.71 Y134.93
G1 Z0.00 F500
G1 X159.29 Y134.93 F1500
G1 X161.40 Y134.72
G1 X163.44 Y134.10
G1 X165.32 Y133.10
G1 X166.96 Y131.75
G1 X168.31 Y130.10
G1 X169.32 Y128.23
G1 X169.93 Y126.19
G1 X170.14 Y124.07
G1 X170.14 Y64.36
G1 X169.93 Y62.24
G1 X169.32 Y60.20
G1 X168.31 Y58.33
G1 X166.96 Y56.68
G1 X165.32 Y55.33
G1 X163.44 Y54.33
G1 X161.40 Y53.71
G1 X159.29 Y53.50
G1 X50.71 Y53.50
G1 X48.60 Y53.71
G1 X46.56 Y54.33
G1 X44.68 Y55.33
G1 X43.04 Y56.68
G1 X41.69 Y58.33
G1 X40.68 Y60.20
G1 X40.07 Y62.24
G1 X39.86 Y64.36
G1 X39.86 Y124.07
G1 X40.07 Y126.19
G1 X40.68 Y128.23
G1 X41.69 Y130.10
G1 X43.04 Y131.75
G1 X44.68 Y133.10
G1 X46.56 Y134.10
G1 X48.60 Y134.72
G1 X50.71 Y134.93
G1 X50.71 Y134.93
G0 Z5.00
G0 X65.64 Y105.07
G1 Z0.00 F500
G1 X66.37 Y101.44 F1500
G1 X68.43 Y98.35
G1 X71.51 Y96.29
G1 X75.14 Y95.57
G1 X78.78 Y96.29
G1 X81.86 Y98.35
G1 X83.92 Y101.44
G1 X84.64 Y105.07
G1 X83.92 Y108.71
G1 X81.86 Y111.79
G1 X78.78 Y113.85
G1 X75.14 Y114.57
G1 X71.51 Y113.85
G1 X68.43 Y111.79
G1 X66.37 Y108.71
G1 X65.64 Y105.07
G0 Z5.00
G0 X95.50 Y105.07
G1 Z0.00 F500
G1 X96.22 Y101.44 F1500
G1 X98.28 Y98.35
G1 X101.36 Y96.29
G1 X105.00 Y95.57
G1 X108.64 Y96.29
G1 X111.72 Y98.35
G1 X113.78 Y101.44
G1 X114.50 Y105.07
G1 X113.78 Y108.71
G1 X111.72 Y111.79
G1 X108.64 Y113.85
G1 X105.00 Y114.57
G1 X101.36 Y113.85
G1 X98.28 Y111.79
G1 X96.22 Y108.71
G1 X95.50 Y105.07
G0 Z5.00
G0 X125.36 Y105.07
G1 Z0.00 F500
G1 X126.08 Y101.44 F1500
G1 X128.14 Y98.35
G1 X131.22 Y96.29
G1 X134.86 Y95.57
G1 X138.49 Y96.29
G1 X141.57 Y98.35
G1 X143.63 Y101.44
G1 X144.36 Y105.07
G1 X143.63 Y108.71
G1 X141.57 Y111.79
G1 X138.49 Y113.85
G1 X134.86 Y114.57
G1 X131.22 Y113.85
G1 X128.14 Y111.79
G1 X126.08 Y108.71
G1 X125.36 Y105.07
G0 Z5.00
G0 X118.57 Y134.93
G1 Z0.00 F500
G1 X118.57 Y145.79 F1500
G0 Z5.00
G0 X118.57 Y156.64
G1 Z0.00 F500
G1 X118.57 Y170.21 F1500
G0 Z5.00
G0 X105.00 Y170.21
G1 Z0.00 F500
G1 X105.00 Y156.64 F1500
G0 Z5.00
G0 X91.43 Y156.64
G1 Z0.00 F500
G1 X91.43 Y170.21 F1500
G0 Z5.00
G0 X81.93 Y170.21
G1 Z0.00 F500
G1 X128.07 Y170.21 F1500
G1 X128.87 Y170.14
G1 X129.63 Y169.90
G1 X130.33 Y169.53
G1 X130.95 Y169.02
G1 X131.46 Y168.40
G1 X131.83 Y167.70
G1 X132.06 Y166.94
G1 X132.14 Y166.14
G1 X132.14 Y160.71
G1 X132.06 Y159.92
G1 X131.83 Y159.16
G1 X131.46 Y158.45
G1 X130.95 Y157.84
G1 X130.33 Y157.33
G1 X129.63 Y156.95
G1 X128.87 Y156.72
G1 X128.07 Y156.64
G1 X81.93 Y156.64
G1 X81.13 Y156.72
G1 X80.37 Y156.95
G1 X79.67 Y157.33
G1 X79.05 Y157.84
G1 X78.54 Y158.45
G1 X78.17 Y159.16
G1 X77.94 Y159.92
G1 X77.86 Y160.71
G1 X77.86 Y166.14
G1 X77.94 Y166.94
G1 X78.17 Y167.70
G1 X78.54 Y168.40
G1 X79.05 Y169.02
G1 X79.67 Y169.53
G1 X80.37 Y169.90
G1 X81.13 Y170.14
G1 X81.93 Y170.21
G1 X81.93 Y170.21
G0 Z5.00
G0 X77.04 Y191.93
G1 Z0.00 F500
G1 X77.31 Y190.58 F1500
G1 X78.08 Y189.43
G1 X79.22 Y188.67
G1 X80.57 Y188.40
G1 X81.92 Y188.67
G1 X83.07 Y189.43
G1 X83.83 Y190.58
G1 X84.10 Y191.93
G1 X83.83 Y193.28
G1 X83.07 Y194.42
G1 X81.92 Y195.19
G1 X80.57 Y195.46
G1 X79.22 Y195.19
G1 X78.08 Y194.42
G1 X77.31 Y193.28
G1 X77.04 Y191.93
G0 Z5.00
G0 X68.36 Y191.93
G1 Z0.00 F500
G1 X68.59 Y189.55 F1500
G1 X69.29 Y187.25
G1 X70.42 Y185.14
G1 X71.93 Y183.29
G1 X73.79 Y181.77
G1 X75.90 Y180.64
G1 X78.19 Y179.95
G1 X80.57 Y179.71
G1 X82.95 Y179.95
G1 X85.25 Y180.64
G1 X87.36 Y181.77
G1 X89.21 Y183.29
G1 X90.73 Y185.14
G1 X91.86 Y187.25
G1 X92.55 Y189.55
G1 X92.79 Y191.93
G1 X92.55 Y194.31
G1 X91.86 Y196.60
G1 X90.73 Y198.71
G1 X89.21 Y200.57
G1 X87.36 Y202.08
G1 X85.25 Y203.21
G1 X82.95 Y203.91
G1 X80.57 Y204.14
G1 X78.19 Y203.91
G1 X75.90 Y203.21
G1 X73.79 Y202.08
G1 X71.93 Y200.57
G1 X70.42 Y198.71
G1 X69.29 Y196.60
G1 X68.59 Y194.31
G1 X68.36 Y191.93
G0 Z5.00
G0 X50.71 Y197.36
G1 Z0.00 F500
G1 X39.86 Y197.36 F1500
G1 X39.86 Y175.64
G1 X50.71 Y175.64
G0 Z5.00
G0 X91.43 Y145.79
G1 Z0.00 F500
G1 X91.43 Y134.93 F1500
G0 Z5.00
G0 X117.21 Y191.93
G1 Z0.00 F500
G1 X117.45 Y189.55 F1500
G1 X118.14 Y187.25
G1 X119.27 Y185.14
G1 X120.79 Y183.29
G1 X122.64 Y181.77
G1 X124.75 Y180.64
G1 X127.05 Y179.95
G1 X129.43 Y179.71
G1 X131.81 Y179.95
G1 X134.10 Y180.64
G1 X136.21 Y181.77
G1 X138.07 Y183.29
G1 X139.58 Y185.14
G1 X140.71 Y187.25
G1 X141.41 Y189.55
G1 X141.64 Y191.93
G1 X141.41 Y194.31
G1 X140.71 Y196.60
G1 X139.58 Y198.71
G1 X138.07 Y200.57
G1 X136.21 Y202.08
G1 X134.10 Y203.21
G1 X131.81 Y203.91
G1 X129.43 Y204.14
G1 X127.05 Y203.91
G1 X124.75 Y203.21
G1 X122.64 Y202.08
G1 X120.79 Y200.57
G1 X119.27 Y198.71
G1 X118.14 Y196.60
G1 X117.45 Y194.31
G1 X117.21 Y191.93
G0 Z5.00
G0 X125.90 Y191.93
G1 Z0.00 F500
G1 X126.17 Y190.58 F1500
G1 X126.93 Y189.43
G1 X128.08 Y188.67
G1 X129.43 Y188.40
G1 X130.78 Y188.67
G1 X131.92 Y189.43
G1 X132.69 Y190.58
G1 X132.96 Y191.93
G1 X132.69 Y193.28
G1 X131.92 Y194.42
G1 X130.78 Y195.19
G1 X129.43 Y195.46
G1 X128.08 Y195.19
G1 X126.93 Y194.42
G1 X126.17 Y193.28
G1 X125.90 Y191.93
G0 Z5.00
G0 X159.29 Y197.36
G1 Z0.00 F500
G1 X170.14 Y197.36 F1500
G1 X170.14 Y175.64
G1 X159.29 Y175.64
G0 Z5.00
G0 X170.14 Y118.64
G1 Z0.00 F500
G1 X200.00 Y91.50 F1500
G1 X194.57 Y69.79
G0 Z5.00
G0 X143.00 Y75.21
G1 Z0.00 F500
G1 X67.00 Y75.21 F1500
G0 Z5.00
G0 X64.29 Y53.50
G1 Z0.00 F500
G1 X83.29 Y53.50 F1500
G1 X84.34 Y53.40
G1 X85.36 Y53.09
G1 X86.30 Y52.59
G1 X87.12 Y51.91
G1 X87.80 Y51.09
G1 X88.30 Y50.15
G1 X88.61 Y49.13
G1 X88.71 Y48.07
G1 X88.71 Y37.21
G1 X88.61 Y36.16
G1 X88.30 Y35.14
G1 X87.80 Y34.20
G1 X87.12 Y33.38
G1 X86.30 Y32.70
G1 X85.36 Y32.20
G1 X84.34 Y31.89
G1 X83.29 Y31.79
G1 X64.29 Y31.79
G1 X63.23 Y31.89
G1 X62.21 Y32.20
G1 X61.27 Y32.70
G1 X60.45 Y33.38
G1 X59.77 Y34.20
G1 X59.27 Y35.14
G1 X58.96 Y36.16
G1 X58.86 Y37.21
G1 X58.86 Y48.07
G1 X58.96 Y49.13
G1 X59.27 Y50.15
G1 X59.77 Y51.09
G1 X60.45 Y51.91
G1 X61.27 Y52.59
G1 X62.21 Y53.09
G1 X63.23 Y53.40
G1 X64.29 Y53.50
G1 X64.29 Y53.50
G0 Z5.00
G0 X126.71 Y53.50
G1 Z0.00 F500
G1 X145.71 Y53.50 F1500
G1 X146.77 Y53.40
G1 X147.79 Y53.09
G1 X148.73 Y52.59
G1 X149.55 Y51.91
G1 X150.23 Y51.09
G1 X150.73 Y50.15
G1 X151.04 Y49.13
G1 X151.14 Y48.07
G1 X151.14 Y37.21
G1 X151.04 Y36.16
G1 X150.73 Y35.14
G1 X150.23 Y34.20
G1 X149.55 Y33.38
G1 X148.73 Y32.70
G1 X147.79 Y32.20
G1 X146.77 Y31.89
G1 X145.71 Y31.79
G1 X126.71 Y31.79
G1 X125.66 Y31.89
G1 X124.64 Y32.20
G1 X123.70 Y32.70
G1 X122.88 Y33.38
G1 X122.20 Y34.20
G1 X121.70 Y35.14
G1 X121.39 Y36.16
G1 X121.29 Y37.21
G1 X121.29 Y48.07
G1 X121.39 Y49.13
G1 X121.70 Y50.15
G1 X122.20 Y51.09
G1 X122.88 Y51.91
G1 X123.70 Y52.59
G1 X124.64 Y53.09
G1 X125.66 Y53.40
G1 X126.71 Y53.50
G1 X126.71 Y53.50
G0 Z5.00
G0 X105.00 Y227.21
G1 Z0.00 F500
G1 X105.00 Y251.64 F1500
G0 Z5.00
G0 X98.21 Y258.43
G1 Z0.00 F500
G1 X98.73 Y255.83 F1500
G1 X100.20 Y253.63
G1 X102.40 Y252.16
G1 X105.00 Y251.64
G1 X107.60 Y252.16
G1 X109.80 Y253.63
G1 X111.27 Y255.83
G1 X111.79 Y258.43
G1 X111.27 Y261.03
G1 X109.80 Y263.23
G1 X107.60 Y264.70
G1 X105.00 Y265.21
G1 X102.40 Y264.70
G1 X100.20 Y263.23
G1 X98.73 Y261.03
G1 X98.21 Y258.43
G0 Z5.00
G0 X64.29 Y227.21
G1 Z0.00 F500
G1 X145.71 Y227.21 F1500
G1 X148.36 Y226.95
G1 X150.91 Y226.18
G1 X153.25 Y224.93
G1 X155.31 Y223.24
G1 X157.00 Y221.18
G1 X158.25 Y218.84
G1 X159.02 Y216.29
G1 X159.29 Y213.64
G1 X159.29 Y159.36
G1 X159.02 Y156.71
G1 X158.25 Y154.16
G1 X157.00 Y151.82
G1 X155.31 Y149.76
G1 X153.25 Y148.07
G1 X150.91 Y146.82
G1 X148.36 Y146.05
G1 X145.71 Y145.79
G1 X64.29 Y145.79
G1 X61.64 Y146.05
G1 X59.09 Y146.82
G1 X56.75 Y148.07
G1 X54.69 Y149.76
G1 X53.00 Y151.82
G1 X51.75 Y154.16
G1 X50.98 Y156.71
G1 X50.71 Y159.36
G1 X50.71 Y213.64
G1 X50.98 Y216.29
G1 X51.75 Y218.84
G1 X53.00 Y221.18
G1 X54.69 Y223.24
G1 X56.75 Y224.93
G1 X59.09 Y226.18
G1 X61.64 Y226.95
G1 X64.29 Y227.21
G1 X64.29 Y227.21
G0 Z5.00
G0 X0.00 Y0.00
M2 ; end of program
