; RoboSketch
; paper 210x297mm, margin 10mm, 15 strokes
G21 ; millimetres
G90 ; absolute positioning
G0 Z5
G0 X25.41 Y235.80 F3000
G1 Z0
G1 X25.41 Y215.26 F1500
G0 Z5
G0 X15.14 Y225.53 F3000
G1 Z0
G1 X35.68 Y225.53 F1500
G0 Z5
G0 X87.03 Y192.15 F3000
G1 Z0
G1 X87.37 Y188.64 F1500
G1 X88.40 Y185.27 F1500
G1 X90.06 Y182.16 F1500
G1 X92.29 Y179.44 F1500
G1 X95.01 Y177.20 F1500
G1 X98.12 Y175.54 F1500
G1 X101.49 Y174.52 F1500
G1 X105.00 Y174.18 F1500
G1 X108.51 Y174.52 F1500
G1 X111.88 Y175.54 F1500
G1 X114.99 Y177.20 F1500
G1 X117.71 Y179.44 F1500
G1 X119.94 Y182.16 F1500
G1 X121.60 Y185.27 F1500
G1 X122.63 Y188.64 F1500
G1 X122.97 Y192.15 F1500
G1 X122.63 Y195.66 F1500
G1 X121.60 Y199.03 F1500
G1 X119.94 Y202.13 F1500
G1 X117.71 Y204.86 F1500
G1 X114.99 Y207.09 F1500
G1 X111.88 Y208.75 F1500
G1 X108.51 Y209.78 F1500
G1 X105.00 Y210.12 F1500
G1 X101.49 Y209.78 F1500
G1 X98.12 Y208.75 F1500
G1 X95.01 Y207.09 F1500
G1 X92.29 Y204.86 F1500
G1 X90.06 Y202.13 F1500
G1 X88.40 Y199.03 F1500
G1 X87.37 Y195.66 F1500
G1 X87.03 Y192.15 F1500
G0 Z5
G0 X93.45 Y192.15 F3000
G1 Z0
G1 X93.67 Y189.89 F1500
G1 X94.33 Y187.73 F1500
G1 X95.39 Y185.73 F1500
G1 X96.83 Y183.98 F1500
G1 X98.58 Y182.54 F1500
G1 X100.58 Y181.47 F1500
G1 X102.75 Y180.82 F1500
G1 X105.00 Y180.59 F1500
G1 X107.25 Y180.82 F1500
G1 X109.42 Y181.47 F1500
G1 X111.42 Y182.54 F1500
G1 X113.17 Y183.98 F1500
G1 X114.61 Y185.73 F1500
G1 X115.67 Y187.73 F1500
G1 X116.33 Y189.89 F1500
G1 X116.55 Y192.15 F1500
G1 X116.33 Y194.40 F1500
G1 X115.67 Y196.57 F1500
G1 X114.61 Y198.57 F1500
G1 X113.17 Y200.32 F1500
G1 X111.42 Y201.76 F1500
G1 X109.42 Y202.82 F1500
G1 X107.25 Y203.48 F1500
G1 X105.00 Y203.70 F1500
G1 X102.75 Y203.48 F1500
G1 X100.58 Y202.82 F1500
G1 X98.58 Y201.76 F1500
G1 X96.83 Y200.32 F1500
G1 X95.39 Y198.57 F1500
G1 X94.33 Y196.57 F1500
G1 X93.67 Y194.40 F1500
G1 X93.45 Y192.15 F1500
G0 Z5
G0 X105.00 Y156.20 F3000
G1 Z0
G1 X105.00 Y130.53 F1500
G0 Z5
G0 X84.46 Y122.82 F3000
G1 Z0
G1 X79.32 Y107.42 F1500
G1 X130.68 Y107.42 F1500
G1 X125.54 Y122.82 F1500
G0 Z5
G0 X138.38 Y120.26 F3000
G1 Z0
G1 X166.62 Y97.15 F1500
G1 X166.62 Y120.26 F1500
G1 X138.38 Y158.77 F1500
G0 Z5
G0 X182.03 Y174.18 F3000
G1 Z0
G1 X197.43 Y174.18 F1500
G0 Z5
G0 X189.73 Y181.88 F3000
G1 Z0
G1 X189.73 Y166.47 F1500
G0 Z5
G0 X125.54 Y102.28 F3000
G1 Z0
G1 X124.10 Y94.58 F1500
G1 X122.33 Y86.88 F1500
G1 X120.24 Y79.18 F1500
G1 X117.84 Y71.47 F1500
G1 X115.11 Y63.77 F1500
G1 X112.06 Y56.07 F1500
G1 X108.69 Y48.36 F1500
G1 X105.00 Y40.66 F1500
G1 X101.31 Y48.36 F1500
G1 X97.94 Y56.07 F1500
G1 X94.89 Y63.77 F1500
G1 X92.16 Y71.47 F1500
G1 X89.76 Y79.18 F1500
G1 X87.67 Y86.88 F1500
G1 X85.90 Y94.58 F1500
G1 X84.46 Y102.28 F1500
G0 Z5
G0 X94.73 Y99.72 F3000
G1 Z0
G1 X96.01 Y94.66 F1500
G1 X97.30 Y89.77 F1500
G1 X98.58 Y85.03 F1500
G1 X99.86 Y80.46 F1500
G1 X101.15 Y76.05 F1500
G1 X102.43 Y71.79 F1500
G1 X103.72 Y67.70 F1500
G1 X105.00 Y63.77 F1500
G1 X106.28 Y67.70 F1500
G1 X107.57 Y71.79 F1500
G1 X108.85 Y76.05 F1500
G1 X110.14 Y80.46 F1500
G1 X111.42 Y85.03 F1500
G1 X112.70 Y89.77 F1500
G1 X113.99 Y94.66 F1500
G1 X115.27 Y99.72 F1500
G0 Z5
G0 X71.62 Y120.26 F3000
G1 Z0
G1 X43.38 Y97.15 F1500
G1 X43.38 Y120.26 F1500
G1 X71.62 Y158.77 F1500
G0 Z5
G0 X20.27 Y79.18 F3000
G1 Z0
G1 X20.27 Y63.77 F1500
G0 Z5
G0 X12.57 Y71.47 F3000
G1 Z0
G1 X27.97 Y71.47 F1500
G0 Z5
G0 X105.00 Y256.34 F3000
G1 Z0
G1 X110.26 Y251.00 F1500
G1 X115.11 Y245.27 F1500
G1 X119.56 Y239.13 F1500
G1 X123.61 Y232.59 F1500
G1 X127.27 Y225.65 F1500
G1 X130.52 Y218.31 F1500
G1 X133.36 Y210.56 F1500
G1 X135.81 Y202.42 F1500
G1 X137.86 Y193.87 F1500
G1 X139.50 Y184.93 F1500
G1 X140.75 Y175.58 F1500
G1 X141.59 Y165.83 F1500
G1 X142.03 Y155.68 F1500
G1 X142.07 Y145.13 F1500
G1 X141.71 Y134.18 F1500
G1 X140.95 Y122.82 F1500
G1 X69.05 Y122.82 F1500
G1 X68.29 Y134.18 F1500
G1 X67.93 Y145.13 F1500
G1 X67.97 Y155.68 F1500
G1 X68.41 Y165.83 F1500
G1 X69.25 Y175.58 F1500
G1 X70.50 Y184.93 F1500
G1 X72.14 Y193.87 F1500
G1 X74.19 Y202.42 F1500
G1 X76.64 Y210.56 F1500
G1 X79.48 Y218.31 F1500
G1 X82.73 Y225.65 F1500
G1 X86.39 Y232.59 F1500
G1 X90.44 Y239.13 F1500
G1 X94.89 Y245.27 F1500
G1 X99.74 Y251.00 F1500
G1 X105.00 Y256.34 F1500
G1 X105.00 Y256.34 F1500
G0 Z5
G0 X0 Y0 F3000
