; RoboSketch
; paper 210x297mm, margin 10mm, 18 strokes
G21 ; millimetres
G90 ; absolute positioning
G0 Z5
G0 X58.78 Y68.44 F3000
G1 Z0
G1 X72.91 Y92.91 F1500
G0 Z5
G0 X49.41 Y116.41 F3000
G1 Z0
G1 X24.94 Y102.28 F1500
G0 Z5
G0 X12.57 Y148.50 F3000
G1 Z0
G1 X40.81 Y148.50 F1500
G0 Z5
G0 X56.22 Y148.50 F3000
G1 Z0
G1 X56.45 Y143.72 F1500
G1 X57.15 Y138.98 F1500
G1 X58.32 Y134.34 F1500
G1 X59.93 Y129.83 F1500
G1 X61.98 Y125.50 F1500
G1 X64.44 Y121.40 F1500
G1 X67.29 Y117.55 F1500
G1 X70.50 Y114.00 F1500
G1 X74.05 Y110.79 F1500
G1 X77.90 Y107.94 F1500
G1 X82.00 Y105.48 F1500
G1 X86.33 Y103.43 F1500
G1 X90.84 Y101.82 F1500
G1 X95.48 Y100.65 F1500
G1 X100.22 Y99.95 F1500
G1 X105.00 Y99.72 F1500
G1 X109.78 Y99.95 F1500
G1 X114.52 Y100.65 F1500
G1 X119.16 Y101.82 F1500
G1 X123.67 Y103.43 F1500
G1 X128.00 Y105.48 F1500
G1 X132.10 Y107.94 F1500
G1 X135.95 Y110.79 F1500
G1 X139.50 Y114.00 F1500
G1 X142.71 Y117.55 F1500
G1 X145.56 Y121.40 F1500
G1 X148.02 Y125.50 F1500
G1 X150.07 Y129.83 F1500
G1 X151.68 Y134.34 F1500
G1 X152.85 Y138.98 F1500
G1 X153.55 Y143.72 F1500
G1 X153.78 Y148.50 F1500
G1 X153.55 Y153.28 F1500
G1 X152.85 Y158.02 F1500
G1 X151.68 Y162.66 F1500
G1 X150.07 Y167.17 F1500
G1 X148.02 Y171.50 F1500
G1 X145.56 Y175.60 F1500
G1 X142.71 Y179.45 F1500
G1 X139.50 Y183.00 F1500
G1 X135.95 Y186.21 F1500
G1 X132.10 Y189.06 F1500
G1 X128.00 Y191.52 F1500
G1 X123.67 Y193.57 F1500
G1 X119.16 Y195.18 F1500
G1 X114.52 Y196.35 F1500
G1 X109.78 Y197.05 F1500
G1 X105.00 Y197.28 F1500
G1 X100.22 Y197.05 F1500
G1 X95.48 Y196.35 F1500
G1 X90.84 Y195.18 F1500
G1 X86.33 Y193.57 F1500
G1 X82.00 Y191.52 F1500
G1 X77.90 Y189.06 F1500
G1 X74.05 Y186.21 F1500
G1 X70.50 Y183.00 F1500
G1 X67.29 Y179.45 F1500
G1 X64.44 Y175.60 F1500
G1 X61.98 Y171.50 F1500
G1 X59.93 Y167.17 F1500
G1 X58.32 Y162.66 F1500
G1 X57.15 Y158.02 F1500
G1 X56.45 Y153.28 F1500
G1 X56.22 Y148.50 F1500
G0 Z5
G0 X74.19 Y143.36 F3000
G1 Z0
G1 X73.07 Y142.08 F1500
G1 X72.26 Y140.80 F1500
G1 X71.78 Y139.51 F1500
G1 X71.62 Y138.23 F1500
G1 X71.78 Y136.95 F1500
G1 X72.26 Y135.66 F1500
G1 X73.07 Y134.38 F1500
G1 X74.19 Y133.09 F1500
G0 Z5
G0 X79.32 Y138.23 F3000
G1 Z0
G1 X82.53 Y134.92 F1500
G1 X85.74 Y132.05 F1500
G1 X88.95 Y129.62 F1500
G1 X92.16 Y127.64 F1500
G1 X95.37 Y126.09 F1500
G1 X98.58 Y124.99 F1500
G1 X101.79 Y124.33 F1500
G1 X105.00 Y124.11 F1500
G1 X108.21 Y124.33 F1500
G1 X111.42 Y124.99 F1500
G1 X114.63 Y126.09 F1500
G1 X117.84 Y127.64 F1500
G1 X121.05 Y129.62 F1500
G1 X124.26 Y132.05 F1500
G1 X127.47 Y134.92 F1500
G1 X130.68 Y138.23 F1500
G0 Z5
G0 X135.81 Y143.36 F3000
G1 Z0
G1 X136.93 Y142.08 F1500
G1 X137.74 Y140.80 F1500
G1 X138.22 Y139.51 F1500
G1 X138.38 Y138.23 F1500
G1 X138.22 Y136.95 F1500
G1 X137.74 Y135.66 F1500
G1 X136.93 Y134.38 F1500
G1 X135.81 Y133.09 F1500
G0 Z5
G0 X128.11 Y161.34 F3000
G1 Z0
G1 X126.82 Y163.02 F1500
G1 X125.54 Y164.23 F1500
G1 X124.26 Y164.95 F1500
G1 X122.97 Y165.19 F1500
G1 X121.69 Y164.95 F1500
G1 X120.41 Y164.23 F1500
G1 X119.12 Y163.02 F1500
G1 X117.84 Y161.34 F1500
G0 Z5
G0 X92.16 Y161.34 F3000
G1 Z0
G1 X90.88 Y163.02 F1500
G1 X89.59 Y164.23 F1500
G1 X88.31 Y164.95 F1500
G1 X87.03 Y165.19 F1500
G1 X85.74 Y164.95 F1500
G1 X84.46 Y164.23 F1500
G1 X83.18 Y163.02 F1500
G1 X81.89 Y161.34 F1500
G0 Z5
G0 X49.41 Y180.59 F3000
G1 Z0
G1 X24.94 Y194.72 F1500
G0 Z5
G0 X58.78 Y228.56 F3000
G1 Z0
G1 X72.91 Y204.09 F1500
G0 Z5
G0 X105.00 Y212.69 F3000
G1 Z0
G1 X105.00 Y240.93 F1500
G0 Z5
G0 X151.22 Y228.56 F3000
G1 Z0
G1 X137.09 Y204.09 F1500
G0 Z5
G0 X160.59 Y180.59 F3000
G1 Z0
G1 X185.06 Y194.72 F1500
G0 Z5
G0 X197.43 Y148.50 F3000
G1 Z0
G1 X169.19 Y148.50 F1500
G0 Z5
G0 X160.59 Y116.41 F3000
G1 Z0
G1 X185.06 Y102.28 F1500
G0 Z5
G0 X151.22 Y68.44 F3000
G1 Z0
G1 X137.09 Y92.91 F1500
G0 Z5
G0 X105.00 Y84.31 F3000
G1 Z0
G1 X105.00 Y56.07 F1500
G0 Z5
G0 X0.00 Y0.00 F3000
